CTC2_L_00104001-01
1 11629U 23351VS  26037.47791667  .00000000  00000+0  00000-0 0  9997
2 11629  85.0000   0.0000 0000000   0.0000   0.0000 14.60983372    18
CTC2_L_00104001-02
1 11630U 22457CA  26037.47791667  .00000000  00000+0  00000-0 0  9995
2 11630  85.0000   0.0000 0000000   0.0000  90.0000 14.60983372    19
CTC2_L_00104001-03
1 11631U 26931XN  26037.47791667  .00000000  00000+0  00000-0 0  9997
2 11631  85.0000   0.0000 0000000   0.0000 180.0000 14.60983372    10
CTC2_L_00104001-04
1 11632U 25020TW  26037.47791667  .00000000  00000+0  00000-0 0  9996
2 11632  85.0000   0.0000 0000000   0.0000 270.0000 14.60983372    11
CTC2_L_00104002-01
1 11633U 23772SR  26037.47791667  .00000000  00000+0  00000-0 0  9999
2 11633  85.0000  12.0000 0000000   0.0000  12.0000 14.60983372    19
CTC2_L_00104002-02
1 11634U 23386UY  26037.47791667  .00000000  00000+0  00000-0 0  9991
2 11634  85.0000  12.0000 0000000   0.0000 102.0000 14.60983372    10
CTC2_L_00104002-03
1 11635U 26276JM  26037.47791667  .00000000  00000+0  00000-0 0  9993
2 11635  85.0000  12.0000 0000000   0.0000 192.0000 14.60983372    10
CTC2_L_00104002-04
1 11636U 25617WA  26037.47791667  .00000000  00000+0  00000-0 0  9992
2 11636  85.0000  12.0000 0000000   0.0000 282.0000 14.60983372    11
CTC2_L_00104003-01
1 11637U 23155LO  26037.47791667  .00000000  00000+0  00000-0 0  9998
2 11637  85.0000  24.0000 0000000   0.0000  24.0000 14.60983372    19
CTC2_L_00104003-02
1 11638U 23479TN  26037.47791667  .00000000  00000+0  00000-0 0  9998
2 11638  85.0000  24.0000 0000000   0.0000 114.0000 14.60983372    10
CTC2_L_00104003-03
1 11639U 24189ZP  26037.47791667  .00000000  00000+0  00000-0 0  9998
2 11639  85.0000  24.0000 0000000   0.0000 204.0000 14.60983372    11
CTC2_L_00104003-04
1 11640U 24465ZB  26037.47791667  .00000000  00000+0  00000-0 0  9997
2 11640  85.0000  24.0000 0000000   0.0000 294.0000 14.60983372    12
CTC2_L_00104004-01
1 11641U 23530QE  26037.47791667  .00000000  00000+0  00000-0 0  9990
2 11641  85.0000  36.0000 0000000   0.0000  36.0000 14.60983372    10
CTC2_L_00104004-02
1 11642U 24797WJ  26037.47791667  .00000000  00000+0  00000-0 0  9997
2 11642  85.0000  36.0000 0000000   0.0000 126.0000 14.60983372    11
CTC2_L_00104004-03
1 11643U 22519SU  26037.47791667  .00000000  00000+0  00000-0 0  9998
2 11643  85.0000  36.0000 0000000   0.0000 216.0000 14.60983372    12
CTC2_L_00104004-04
1 11644U 24563DN  26037.47791667  .00000000  00000+0  00000-0 0  9990
2 11644  85.0000  36.0000 0000000   0.0000 306.0000 14.60983372    13
CTC2_L_00104005-01
1 11645U 24460MT  26037.47791667  .00000000  00000+0  00000-0 0  9997
2 11645  85.0000  48.0000 0000000   0.0000  48.0000 14.60983372    10
CTC2_L_00104005-02
1 11646U 26836RZ  26037.47791667  .00000000  00000+0  00000-0 0  9997
2 11646  85.0000  48.0000 0000000   0.0000 138.0000 14.60983372    11
CTC2_L_00104005-03
1 11647U 25541DI  26037.47791667  .00000000  00000+0  00000-0 0  9990
2 11647  85.0000  48.0000 0000000   0.0000 228.0000 14.60983372    12
CTC2_L_00104005-04
1 11648U 23834TD  26037.47791667  .00000000  00000+0  00000-0 0  9994
2 11648  85.0000  48.0000 0000000   0.0000 318.0000 14.60983372    13
CTC2_L_00104006-01
1 11649U 26823GG  26037.47791667  .00000000  00000+0  00000-0 0  9996
2 11649  85.0000  60.0000 0000000   0.0000  60.0000 14.60983372    12
CTC2_L_00104006-02
1 11650U 22764RH  26037.47791667  .00000000  00000+0  00000-0 0  9998
2 11650  85.0000  60.0000 0000000   0.0000 150.0000 14.60983372    14
CTC2_L_00104006-03
1 11651U 24016WT  26037.47791667  .00000000  00000+0  00000-0 0  9991
2 11651  85.0000  60.0000 0000000   0.0000 240.0000 14.60983372    15
CTC2_L_00104006-04
1 11652U 25766ID  26037.47791667  .00000000  00000+0  00000-0 0  9995
2 11652  85.0000  60.0000 0000000   0.0000 330.0000 14.60983372    16
CTC2_L_00104007-01
1 11653U 23143JD  26037.47791667  .00000000  00000+0  00000-0 0  9993
2 11653  85.0000  72.0000 0000000   0.0000  72.0000 14.60983372    13
CTC2_L_00104007-02
1 11654U 23040UU  26037.47791667  .00000000  00000+0  00000-0 0  9990
2 11654  85.0000  72.0000 0000000   0.0000 162.0000 14.60983372    14
CTC2_L_00104007-03
1 11655U 24866CC  26037.47791667  .00000000  00000+0  00000-0 0  9998
2 11655  85.0000  72.0000 0000000   0.0000 252.0000 14.60983372    15
CTC2_L_00104007-04
1 11656U 26514SV  26037.47791667  .00000000  00000+0  00000-0 0  9991
2 11656  85.0000  72.0000 0000000   0.0000 342.0000 14.60983372    16
CTC2_L_00104008-01
1 11657U 26275DA  26037.47791667  .00000000  00000+0  00000-0 0  9996
2 11657  85.0000  84.0000 0000000   0.0000  84.0000 14.60983372    13
CTC2_L_00104008-02
1 11658U 22803HS  26037.47791667  .00000000  00000+0  00000-0 0  9990
2 11658  85.0000  84.0000 0000000   0.0000 174.0000 14.60983372    14
CTC2_L_00104008-03
1 11659U 22377YI  26037.47791667  .00000000  00000+0  00000-0 0  9997
2 11659  85.0000  84.0000 0000000   0.0000 264.0000 14.60983372    15
CTC2_L_00104008-04
1 11660U 22908OS  26037.47791667  .00000000  00000+0  00000-0 0  9999
2 11660  85.0000  84.0000 0000000   0.0000 354.0000 14.60983372    17
CTC2_L_00104009-01
1 11661U 22506UC  26037.47791667  .00000000  00000+0  00000-0 0  9994
2 11661  85.0000  96.0000 0000000   0.0000  96.0000 14.60983372    14
CTC2_L_00104009-02
1 11662U 23460JP  26037.47791667  .00000000  00000+0  00000-0 0  9995
2 11662  85.0000  96.0000 0000000   0.0000 186.0000 14.60983372    15
CTC2_L_00104009-03
1 11663U 26983VP  26037.47791667  .00000000  00000+0  00000-0 0  9999
2 11663  85.0000  96.0000 0000000   0.0000 276.0000 14.60983372    16
CTC2_L_00104009-04
1 11664U 25811JM  26037.47791667  .00000000  00000+0  00000-0 0  9999
2 11664  85.0000  96.0000 0000000   0.0000   6.0000 14.60983372    18
CTC2_L_00104010-01
1 11665U 24512DE  26037.47791667  .00000000  00000+0  00000-0 0  9997
2 11665  85.0000 108.0000 0000000   0.0000 108.0000 14.60983372    16
CTC2_L_00104010-02
1 11666U 25604LC  26037.47791667  .00000000  00000+0  00000-0 0  9991
2 11666  85.0000 108.0000 0000000   0.0000 198.0000 14.60983372    16
CTC2_L_00104010-03
1 11667U 22735DT  26037.47791667  .00000000  00000+0  00000-0 0  9994
2 11667  85.0000 108.0000 0000000   0.0000 288.0000 14.60983372    17
CTC2_L_00104010-04
1 11668U 24304AT  26037.47791667  .00000000  00000+0  00000-0 0  9999
2 11668  85.0000 108.0000 0000000   0.0000  18.0000 14.60983372    19
CTC2_L_00104011-01
1 11669U 25193AB  26037.47791667  .00000000  00000+0  00000-0 0  9997
2 11669  85.0000 120.0000 0000000   0.0000 120.0000 14.60983372    18
CTC2_L_00104011-02
1 11670U 22922OZ  26037.47791667  .00000000  00000+0  00000-0 0  9996
2 11670  85.0000 120.0000 0000000   0.0000 210.0000 14.60983372    10
CTC2_L_00104011-03
1 11671U 26776OC  26037.47791667  .00000000  00000+0  00000-0 0  9998
2 11671  85.0000 120.0000 0000000   0.0000 300.0000 14.60983372    11
CTC2_L_00104011-04
1 11672U 25526XG  26037.47791667  .00000000  00000+0  00000-0 0  9991
2 11672  85.0000 120.0000 0000000   0.0000  30.0000 14.60983372    12
CTC2_L_00104012-01
1 11673U 25448UV  26037.47791667  .00000000  00000+0  00000-0 0  9995
2 11673  85.0000 132.0000 0000000   0.0000 132.0000 14.60983372    19
CTC2_L_00104012-02
1 11674U 24284IF  26037.47791667  .00000000  00000+0  00000-0 0  9993
2 11674  85.0000 132.0000 0000000   0.0000 222.0000 14.60983372    10
CTC2_L_00104012-03
1 11675U 23027OI  26037.47791667  .00000000  00000+0  00000-0 0  9998
2 11675  85.0000 132.0000 0000000   0.0000 312.0000 14.60983372    11
CTC2_L_00104012-04
1 11676U 22817VW  26037.47791667  .00000000  00000+0  00000-0 0  9995
2 11676  85.0000 132.0000 0000000   0.0000  42.0000 14.60983372    12
CTC2_L_00104013-01
1 11677U 23834IC  26037.47791667  .00000000  00000+0  00000-0 0  9996
2 11677  85.0000 144.0000 0000000   0.0000 144.0000 14.60983372    19
CTC2_L_00104013-02
1 11678U 23216IQ  26037.47791667  .00000000  00000+0  00000-0 0  9991
2 11678  85.0000 144.0000 0000000   0.0000 234.0000 14.60983372    10
CTC2_L_00104013-03
1 11679U 24231FJ  26037.47791667  .00000000  00000+0  00000-0 0  9990
2 11679  85.0000 144.0000 0000000   0.0000 324.0000 14.60983372    11
CTC2_L_00104013-04
1 11680U 25374FB  26037.47791667  .00000000  00000+0  00000-0 0  9991
2 11680  85.0000 144.0000 0000000   0.0000  54.0000 14.60983372    13
CTC2_L_00104014-01
1 11681U 26761IS  26037.47791667  .00000000  00000+0  00000-0 0  9993
2 11681  85.0000 156.0000 0000000   0.0000 156.0000 14.60983372    10
CTC2_L_00104014-02
1 11682U 24042CI  26037.47791667  .00000000  00000+0  00000-0 0  9994
2 11682  85.0000 156.0000 0000000   0.0000 246.0000 14.60983372    11
CTC2_L_00104014-03
1 11683U 25194DA  26037.47791667  .00000000  00000+0  00000-0 0  9994
2 11683  85.0000 156.0000 0000000   0.0000 336.0000 14.60983372    12
CTC2_L_00104014-04
1 11684U 24027GL  26037.47791667  .00000000  00000+0  00000-0 0  9999
2 11684  85.0000 156.0000 0000000   0.0000  66.0000 14.60983372    13
CTC2_L_00104015-01
1 11685U 23040MA  26037.47791667  .00000000  00000+0  00000-0 0  9994
2 11685  85.0000 168.0000 0000000   0.0000 168.0000 14.60983372    10
CTC2_L_00104015-02
1 11686U 26767JN  26037.47791667  .00000000  00000+0  00000-0 0  9994
2 11686  85.0000 168.0000 0000000   0.0000 258.0000 14.60983372    11
CTC2_L_00104015-03
1 11687U 22645QA  26037.47791667  .00000000  00000+0  00000-0 0  9996
2 11687  85.0000 168.0000 0000000   0.0000 348.0000 14.60983372    12
CTC2_L_00104015-04
1 11688U 25626BG  26037.47791667  .00000000  00000+0  00000-0 0  9999
2 11688  85.0000 168.0000 0000000   0.0000  78.0000 14.60983372    13
CTC2_L_00104016-01
1 11689U 23419LQ  26037.47791667  .00000000  00000+0  00000-0 0  9998
2 11689  85.0000 180.0000 0000000   0.0000 180.0000 14.60983372    12
CTC2_L_00104016-02
1 11690U 25686ZF  26037.47791667  .00000000  00000+0  00000-0 0  9998
2 11690  85.0000 180.0000 0000000   0.0000 270.0000 14.60983372    14
